0 COMSTAR 2
1 09047U 76073A   13283.40836145 -.00000001  00000-0  10000-3 0  2103
2 09047 014.7215 350.8748 0003944 128.8146 231.2292 00.99988266137208
0 COMSTAR 2
1 09047U 76073A   13285.40850349 -.00000019  00000-0  10000-3 0  2117
2 09047 014.7216 350.8540 0003927 130.9017 229.1367 00.99988889137223
0 COMSTAR 2
1 09047U 76073A   13290.40878102  .00000000  00000-0  10000-3 0  2131
2 09047 014.7227 350.8023 0003031 130.0229 229.9966 00.99986195137268
0 COMSTAR 2
1 09047U 76073A   13290.40879049 -.00000059  00000-0  10000-3 0  2126
2 09047 014.7217 350.8014 0004403 130.6312 229.3994 00.99990315137275
0 COMSTAR 2
1 09047U 76073A   13293.40893995 -.00000079  00000-0  10000-3 0  2138
2 09047 014.7211 350.7711 0004387 130.4994 229.5250 00.99990984137300
0 COMSTAR 2
1 09047U 76073A   13295.40904755 -.00000092  00000-0  10000-3 0  2143
2 09047 014.7210 350.7506 0004171 131.1934 228.8316 00.99991352137321
